{"type": "FeatureCollection", "features": [ {"type": "Feature", "properties": {"norad_id": 38197, "name": "COSMOS 2251 DEB", "group": "cosmos-2251-debris", "lat": 62.24445653759779, "lon": 22.238774322823456, "alt_km": 723.1218687585806, "timestamp": "2025-12-16T19:34:24.666718+00:00", "meta": {"OBJECT_NAME": "COSMOS 2251 DEB", "OBJECT_ID": "1993-036BSM", "EPOCH": "2025-12-15T17:12:16.336800", "MEAN_MOTION": 14.74191742, "ECCENTRICITY": 0.01256793, "INCLINATION": 73.9374, "RA_OF_ASC_NODE": 351.2002, "ARG_OF_PERICENTER": 227.9167, "MEAN_ANOMALY": 131.1266, "EPHEMERIS_TYPE": 0, "CLASSIFICATION_TYPE": "U", "NORAD_CAT_ID": 38197, "ELEMENT_SET_NO": 999, "REV_AT_EPOCH": 85799, "BSTAR": 0.0020909891, "MEAN_MOTION_DOT": 0.00015677, "MEAN_MOTION_DDOT": 0}, "tle": {"line1": "1 38197U 93036BSM 25349.71685575  .00015677  00000+0  20910-2 0  9995", "line2": "2 38197  73.9374 351.2002 0125679 227.9167 131.1266 14.74191742857998"}}, "geometry": {"type": "Point", "coordinates": [22.238774322823456, 62.24445653759779]}}, {"type": "Feature", "properties": {"norad_id": 38199, "name": "COSMOS 2251 DEB", "group": "cosmos-2251-debris", "lat": 54.90837919420524, "lon": 79.66970981203016, "alt_km": 942.823321023171, "timestamp": "2025-12-16T19:34:24.666729+00:00", "meta": {"OBJECT_NAME": "COSMOS 2251 DEB", "OBJECT_ID": "1993-036BSP", "EPOCH": "2025-12-15T20:26:01.047264", "MEAN_MOTION": 13.6479812, "ECCENTRICITY": 0.03697807, "INCLINATION": 73.9561, "RA_OF_ASC_NODE": 57.0764, "ARG_OF_PERICENTER": 342.9397, "MEAN_ANOMALY": 15.9546, "EPHEMERIS_TYPE": 0, "CLASSIFICATION_TYPE": "U", "NORAD_CAT_ID": 38199, "ELEMENT_SET_NO": 999, "REV_AT_EPOCH": 61064, "BSTAR": 0.00050452401, "MEAN_MOTION_DOT": 6.25e-06, "MEAN_MOTION_DDOT": 0}, "tle": {"line1": "1 38199U 93036BSP 25349.85140101  .00000625  00000+0  50452-3 0  9995", "line2": "2 38199  73.9561  57.0764 0369780 342.9397  15.9546 13.64798120610640"}}, "geometry": {"type": "Point", "coordinates": [79.66970981203016, 54.90837919420524]}}, {"type": "Feature", "properties": {"norad_id": 38208, "name": "COSMOS 2251 DEB", "group": "cosmos-2251-debris", "lat": 18.040653233064642, "lon": -114.5426430670018, "alt_km": 615.4361941399375, "timestamp": "2025-12-16T19:34:24.666739+00:00", "meta": {"OBJECT_NAME": "COSMOS 2251 DEB", "OBJECT_ID": "1993-036BSY", "EPOCH": "2025-12-15T05:46:42.754368", "MEAN_MOTION": 14.8400172, "ECCENTRICITY": 0.00017643, "INCLINATION": 74.0057, "RA_OF_ASC_NODE": 73.9438, "ARG_OF_PERICENTER": 154.1528, "MEAN_ANOMALY": 237.1904, "EPHEMERIS_TYPE": 0, "CLASSIFICATION_TYPE": "U", "NORAD_CAT_ID": 38208, "ELEMENT_SET_NO": 999, "REV_AT_EPOCH": 71196, "BSTAR": 0.0014297718, "MEAN_MOTION_DOT": 0.00011892, "MEAN_MOTION_DDOT": 0}, "tle": {"line1": "1 38208U 93036BSY 25349.24077262  .00011892  00000+0  14298-2 0  9991", "line2": "2 38208  74.0057  73.9438 0001764 154.1528 237.1904 14.84001720711961"}}, "geometry": {"type": "Point", "coordinates": [-114.5426430670018, 18.040653233064642]}}, {"type": "Feature", "properties": {"norad_id": 38212, "name": "COSMOS 2251 DEB", "group": "cosmos-2251-debris", "lat": 17.691329058520406, "lon": 73.84204388812385, "alt_km": 664.5290065246427, "timestamp": "2025-12-16T19:34:24.666749+00:00", "meta": {"OBJECT_NAME": "COSMOS 2251 DEB", "OBJECT_ID": "1993-036BTC", "EPOCH": "2025-12-13T23:14:48.711840", "MEAN_MOTION": 14.77697426, "ECCENTRICITY": 0.00923484, "INCLINATION": 74.0527, "RA_OF_ASC_NODE": 74.1891, "ARG_OF_PERICENTER": 140.8526, "MEAN_ANOMALY": 219.9379, "EPHEMERIS_TYPE": 0, "CLASSIFICATION_TYPE": "U", "NORAD_CAT_ID": 38212, "ELEMENT_SET_NO": 999, "REV_AT_EPOCH": 81328, "BSTAR": 0.00051158029, "MEAN_MOTION_DOT": 3.901e-05, "MEAN_MOTION_DDOT": 0}, "tle": {"line1": "1 38212U 93036BTC 25347.96861935  .00003901  00000+0  51158-3 0  9990", "line2": "2 38212  74.0527  74.1891 0092348 140.8526 219.9379 14.77697426813280"}}, "geometry": {"type": "Point", "coordinates": [73.84204388812385, 17.691329058520406]}}, {"type": "Feature", "properties": {"norad_id": 38220, "name": "COSMOS 2251 DEB", "group": "cosmos-2251-debris", "lat": 31.956150402786637, "lon": 70.39116843763442, "alt_km": 582.4892416468902, "timestamp": "2025-12-16T19:34:24.666759+00:00", "meta": {"OBJECT_NAME": "COSMOS 2251 DEB", "OBJECT_ID": "1993-036BTL", "EPOCH": "2025-12-15T11:15:49.097664", "MEAN_MOTION": 14.93101324, "ECCENTRICITY": 0.00049703, "INCLINATION": 74.0151, "RA_OF_ASC_NODE": 62.7994, "ARG_OF_PERICENTER": 37.6366, "MEAN_ANOMALY": 322.5164, "EPHEMERIS_TYPE": 0, "CLASSIFICATION_TYPE": "U", "NORAD_CAT_ID": 38220, "ELEMENT_SET_NO": 999, "REV_AT_EPOCH": 71411, "BSTAR": 0.0017694768, "MEAN_MOTION_DOT": 0.00018461, "MEAN_MOTION_DDOT": 0}, "tle": {"line1": "1 38220U 93036BTL 25349.46931826  .00018461  00000+0  17695-2 0  9997", "line2": "2 38220  74.0151  62.7994 0004970  37.6366 322.5164 14.93101324714118"}}, "geometry": {"type": "Point", "coordinates": [70.39116843763442, 31.956150402786637]}}, {"type": "Feature", "properties": {"norad_id": 38479, "name": "COSMOS 2251 DEB", "group": "cosmos-2251-debris", "lat": 71.53403651527789, "lon": -124.05415540802399, "alt_km": 811.4280101804497, "timestamp": "2025-12-16T19:34:24.666769+00:00", "meta": {"OBJECT_NAME": "COSMOS 2251 DEB", "OBJECT_ID": "1993-036BTP", "EPOCH": "2025-12-13T19:29:32.997408", "MEAN_MOTION": 14.3831318, "ECCENTRICITY": 0.0084157, "INCLINATION": 74.007, "RA_OF_ASC_NODE": 182.3013, "ARG_OF_PERICENTER": 291.0961, "MEAN_ANOMALY": 83.9532, "EPHEMERIS_TYPE": 0, "CLASSIFICATION_TYPE": "U", "NORAD_CAT_ID": 38479, "ELEMENT_SET_NO": 999, "REV_AT_EPOCH": 64703, "BSTAR": 0.0021939338, "MEAN_MOTION_DOT": 6.938e-05, "MEAN_MOTION_DDOT": 0}, "tle": {"line1": "1 38479U 93036BTP 25347.81218747  .00006938  00000+0  21939-2 0  9992", "line2": "2 38479  74.0070 182.3013 0084157 291.0961  83.9532 14.38313180647034"}}, "geometry": {"type": "Point", "coordinates": [-124.05415540802399, 71.53403651527789]}}, {"type": "Feature", "properties": {"norad_id": 38481, "name": "COSMOS 2251 DEB", "group": "cosmos-2251-debris", "lat": 63.691117477427895, "lon": 36.16604434614396, "alt_km": 1010.1771846716028, "timestamp": "2025-12-16T19:34:24.666779+00:00", "meta": {"OBJECT_NAME": "COSMOS 2251 DEB", "OBJECT_ID": "1993-036BTR", "EPOCH": "2025-12-15T07:05:48.999264", "MEAN_MOTION": 13.94840538, "ECCENTRICITY": 0.02346938, "INCLINATION": 73.9334, "RA_OF_ASC_NODE": 3.139, "ARG_OF_PERICENTER": 302.9247, "MEAN_ANOMALY": 54.9502, "EPHEMERIS_TYPE": 0, "CLASSIFICATION_TYPE": "U", "NORAD_CAT_ID": 38481, "ELEMENT_SET_NO": 999, "REV_AT_EPOCH": 59096, "BSTAR": 0.0014478089, "MEAN_MOTION_DOT": 2.419e-05, "MEAN_MOTION_DDOT": 0}, "tle": {"line1": "1 38481U 93036BTR 25349.29570601  .00002419  00000+0  14478-2 0  9999", "line2": "2 38481  73.9334   3.1390 0234693 302.9247  54.9502 13.94840538590964"}}, "geometry": {"type": "Point", "coordinates": [36.16604434614396, 63.691117477427895]}}, {"type": "Feature", "properties": {"norad_id": 38483, "name": "COSMOS 2251 DEB", "group": "cosmos-2251-debris", "lat": -50.59555222100613, "lon": -15.620345555343805, "alt_km": 877.7559903419251, "timestamp": "2025-12-16T19:34:24.666790+00:00", "meta": {"OBJECT_NAME": "COSMOS 2251 DEB", "OBJECT_ID": "1993-036BTT", "EPOCH": "2025-12-12T08:16:48.530496", "MEAN_MOTION": 14.28787654, "ECCENTRICITY": 0.01107994, "INCLINATION": 74.262, "RA_OF_ASC_NODE": 12.4521, "ARG_OF_PERICENTER": 118.0167, "MEAN_ANOMALY": 243.2246, "EPHEMERIS_TYPE": 0, "CLASSIFICATION_TYPE": "U", "NORAD_CAT_ID": 38483, "ELEMENT_SET_NO": 999, "REV_AT_EPOCH": 63472, "BSTAR": 0.0012977102, "MEAN_MOTION_DOT": 3.471e-05, "MEAN_MOTION_DDOT": 0}, "tle": {"line1": "1 38483U 93036BTT 25346.34500614  .00003471  00000+0  12977-2 0  9992", "line2": "2 38483  74.2620  12.4521 0110799 118.0167 243.2246 14.28787654634722"}}, "geometry": {"type": "Point", "coordinates": [-15.620345555343805, -50.59555222100613]}}, {"type": "Feature", "properties": {"norad_id": 38486, "name": "COSMOS 2251 DEB", "group": "cosmos-2251-debris", "lat": -38.69024219804011, "lon": 30.206472171962016, "alt_km": 666.9002293066451, "timestamp": "2025-12-16T19:34:24.666800+00:00", "meta": {"OBJECT_NAME": "COSMOS 2251 DEB", "OBJECT_ID": "1993-036BTW", "EPOCH": "2025-12-14T08:43:16.817376", "MEAN_MOTION": 14.73317924, "ECCENTRICITY": 0.00302546, "INCLINATION": 73.9417, "RA_OF_ASC_NODE": 201.6743, "ARG_OF_PERICENTER": 345.7172, "MEAN_ANOMALY": 193.9267, "EPHEMERIS_TYPE": 0, "CLASSIFICATION_TYPE": "U", "NORAD_CAT_ID": 38486, "ELEMENT_SET_NO": 999, "REV_AT_EPOCH": 75458, "BSTAR": 0.0022812423, "MEAN_MOTION_DOT": 0.00014869, "MEAN_MOTION_DDOT": 0}, "tle": {"line1": "1 38486U 93036BTW 25348.36338909  .00014869  00000+0  22812-2 0  9997", "line2": "2 38486  73.9417 201.6743 0030254 345.7172 193.9267 14.73317924754585"}}, "geometry": {"type": "Point", "coordinates": [30.206472171962016, -38.69024219804011]}}, {"type": "Feature", "properties": {"norad_id": 38487, "name": "COSMOS 2251 DEB", "group": "cosmos-2251-debris", "lat": -67.67451215134211, "lon": -19.13645304110624, "alt_km": 519.5776543434404, "timestamp": "2025-12-16T19:34:24.666811+00:00", "meta": {"OBJECT_NAME": "COSMOS 2251 DEB", "OBJECT_ID": "1993-036BTX", "EPOCH": "2025-12-15T09:05:37.644288", "MEAN_MOTION": 15.17550331, "ECCENTRICITY": 0.00212693, "INCLINATION": 73.9757, "RA_OF_ASC_NODE": 28.2906, "ARG_OF_PERICENTER": 200.4312, "MEAN_ANOMALY": 159.6036, "EPHEMERIS_TYPE": 0, "CLASSIFICATION_TYPE": "U", "NORAD_CAT_ID": 38487, "ELEMENT_SET_NO": 999, "REV_AT_EPOCH": 66840, "BSTAR": 0.0011624487, "MEAN_MOTION_DOT": 0.00023508, "MEAN_MOTION_DDOT": 0}, "tle": {"line1": "1 38487U 93036BTX 25349.37890792  .00023508  00000+0  11624-2 0  9992", "line2": "2 38487  73.9757  28.2906 0021269 200.4312 159.6036 15.17550331668404"}}, "geometry": {"type": "Point", "coordinates": [-19.13645304110624, -67.67451215134211]}}]}